IRIDIUM 154             
1 43574U 18061F   26199.55766769  .00000014  00000+0 -21479-5 0  9990
2 43574  86.3939  43.6844 0002320  89.5988 270.5473 14.34217421417904
IRIDIUM 163             
1 43575U 18061G   26199.53864035  .00000029  00000+0  33452-5 0  9993
2 43575  86.3937  43.6067 0002102  86.5154 273.6282 14.34217443417872
IRIDIUM 156             
1 43576U 18061H   26199.51326775  .00000090  00000+0  25024-4 0  9999
2 43576  86.3937  43.6245 0002108  93.2314 266.9123 14.34218499417860
IRIDIUM 164             
1 43577U 18061J   26199.07563062  .00000059  00000+0  13904-4 0  9992
2 43577  86.3938  43.8487 0002364  89.2647 270.8820 14.34218343417844
IRIDIUM 159             
1 43578U 18061K   26199.53229654  .00000058  00000+0  13641-4 0  9997
2 43578  86.3935  43.5937 0002129  86.2934 273.8506 14.34217905417874
IRIDIUM 180             
1 43922U 19002A   26199.46202488  .00000054  00000+0  12326-4 0  9999
2 43922  86.3996 340.5240 0002187  91.3707 268.7739 14.34217896393479
IRIDIUM 176             
1 43923U 19002B   26199.62815367  .00000367  00000+0  54331-4 0  9993
2 43923  86.6117 340.3936 0002343  91.4705 268.6781 14.72251467403877
IRIDIUM 168             
1 43924U 19002C   26199.38591505  .00000048  00000+0  99557-5 0  9998
2 43924  86.3998 340.6338 0002173  90.1663 269.9782 14.34217126393449
IRIDIUM 173             
1 43925U 19002D   26199.65230288 -.00000065  00000+0 -30249-4 0  9990
2 43925  86.3988 340.4105 0002033  92.2622 267.8806 14.34217527393463
IRIDIUM 169             
1 43926U 19002E   26199.48273905  .00000066  00000+0  15176-4 0  9996
2 43926  86.4236  12.1048 0002097 102.7851 257.3582 14.38605573394722
IRIDIUM 172             
1 43927U 19002F   26199.64596031  .00000070  00000+0  17869-4 0  9999
2 43927  86.3995 340.4208 0002187  91.5795 268.5651 14.34218023393479
IRIDIUM 175             
1 43928U 19002G   26199.60599259  .00000166  00000+0  42878-4 0  9995
2 43928  86.4509 277.3885 0005458 108.9585 251.2208 14.43628278403516
IRIDIUM 171             
1 43929U 19002H   26199.62693232  .00000057  00000+0  13432-4 0  9997
2 43929  86.4005 340.7383 0002283  95.5352 264.6104 14.34217921393466
IRIDIUM 170             
1 43930U 19002J   26199.63432203  .00000368  00000+0  54448-4 0  9996
2 43930  86.6115 340.3931 0002227  88.8669 271.2803 14.72252074403889
IRIDIUM 167             
1 43931U 19002K   26198.92290452  .00000045  00000+0  91589-5 0  9996
2 43931  86.3995 340.7455 0002341  98.3553 261.7909 14.34217847393362
IRIDIUM 181             
1 56726U 23068S   26199.51266956  .00000156  00000+0  40344-4 0  9992
2 56726  86.4475  43.6899 0002390  84.3380 275.8093 14.43308202166959
IRIDIUM 177             
1 56727U 23068T   26199.55756716  .00000510  00000+0  63950-4 0  9997
2 56727  86.1988 313.8985 0002210  97.0759 263.0714 14.80027057171004
IRIDIUM 174             
1 56728U 23068U   26199.34999230  .00000327  00000+0  47921-4 0  9991
2 56728  86.6121 340.6624 0001925  90.1941 269.9497 14.72256857170607
IRIDIUM 178             
1 56729U 23068V   26199.47895774  .00000175  00000+0  19704-4 0  9993
2 56729  86.6538  12.2813 0002283  91.3560 268.7923 14.80028958170991
IRIDIUM 179             
1 56730U 23068W   26199.47361462  .00000101  00000+0  98529-5 0  9999
2 56730  86.6768  21.3552 0002373  93.5934 266.5558 14.80023489170992
