OBJECT_NAME,OBJECT_ID,EPOCH,MEAN_MOTION,ECCENTRICITY,INCLINATION,RA_OF_ASC_NODE,ARG_OF_PERICENTER,MEAN_ANOMALY,EPHEMERIS_TYPE,CLASSIFICATION_TYPE,NORAD_CAT_ID,ELEMENT_SET_NO,REV_AT_EPOCH,BSTAR,MEAN_MOTION_DOT,MEAN_MOTION_DDOT
IRIDIUM 154,2018-061F,2026-07-18T13:23:02.488416,14.34217421,.000232,86.3939,43.6844,89.5988,270.5473,0,U,43574,999,41790,-.2147913E-5,.14E-6,0
IRIDIUM 163,2018-061G,2026-07-18T12:55:38.526240,14.34217443,.0002102,86.3937,43.6067,86.5154,273.6282,0,U,43575,999,41787,.3345166E-5,.29E-6,0
IRIDIUM 156,2018-061H,2026-07-18T12:19:06.333600,14.34218499,.00021089,86.3937,43.6245,93.2314,266.9123,0,U,43576,999,41786,.25024309E-4,.9E-6,0
IRIDIUM 164,2018-061J,2026-07-18T01:48:54.485568,14.34218343,.00023641,86.3938,43.8487,89.2647,270.8820,0,U,43577,999,41784,.13904332E-4,.59E-6,0
IRIDIUM 159,2018-061K,2026-07-18T12:46:30.421056,14.34217905,.00021291,86.3935,43.5937,86.2934,273.8506,0,U,43578,999,41787,.13641271E-4,.58E-6,0
IRIDIUM 180,2019-002A,2026-07-18T11:05:18.949632,14.34217896,.00021871,86.3996,340.5240,91.3707,268.7739,0,U,43922,999,39347,.12326214E-4,.54E-6,0
IRIDIUM 176,2019-002B,2026-07-18T15:04:32.477088,14.72251467,.0002343,86.6117,340.3936,91.4705,268.6781,0,U,43923,999,40387,.54330698E-4,.367E-5,0
IRIDIUM 168,2019-002C,2026-07-18T09:15:43.060320,14.34217126,.00021735,86.3998,340.6338,90.1663,269.9782,0,U,43924,999,39344,.9955688E-5,.48E-6,0
IRIDIUM 173,2019-002D,2026-07-18T15:39:18.968832,14.34217527,.00020336,86.3988,340.4105,92.2622,267.8806,0,U,43925,999,39346,-.30249335E-4,-.65E-6,0
IRIDIUM 169,2019-002E,2026-07-18T11:35:08.653920,14.38605573,.00020977,86.4236,12.1048,102.7851,257.3582,0,U,43926,999,39472,.15176042E-4,.66E-6,0
IRIDIUM 172,2019-002F,2026-07-18T15:30:10.970784,14.34218023,.00021875,86.3995,340.4208,91.5795,268.5651,0,U,43927,999,39347,.17869363E-4,.7E-6,0
IRIDIUM 175,2019-002G,2026-07-18T14:32:37.759776,14.43628278,.00054587,86.4509,277.3885,108.9585,251.2208,0,U,43928,999,40351,.42878201E-4,.166E-5,0
IRIDIUM 171,2019-002H,2026-07-18T15:02:46.952448,14.34217921,.00022831,86.4005,340.7383,95.5352,264.6104,0,U,43929,999,39346,.13432104E-4,.57E-6,0
IRIDIUM 170,2019-002J,2026-07-18T15:13:25.423392,14.72252074,.00022274,86.6115,340.3931,88.8669,271.2803,0,U,43930,999,40388,.54447674E-4,.368E-5,0
IRIDIUM 167,2019-002K,2026-07-17T22:08:58.950528,14.34217847,.00023411,86.3995,340.7455,98.3553,261.7909,0,U,43931,999,39336,.9158856E-5,.45E-6,0
IRIDIUM 181,2023-068S,2026-07-18T12:18:14.649984,14.43308202,.000239,86.4475,43.6899,84.3380,275.8093,0,U,56726,999,16695,.40344093E-4,.156E-5,0
IRIDIUM 177,2023-068T,2026-07-18T13:22:53.802624,14.80027057,.00022105,86.1988,313.8985,97.0759,263.0714,0,U,56727,999,17100,.63949924E-4,.51E-5,0
IRIDIUM 174,2023-068U,2026-07-18T08:23:59.334720,14.72256857,.00019251,86.6121,340.6624,90.1941,269.9497,0,U,56728,999,17060,.47920744E-4,.327E-5,0
IRIDIUM 178,2023-068V,2026-07-18T11:29:41.948736,14.80028958,.0002283,86.6538,12.2813,91.3560,268.7923,0,U,56729,999,17099,.19704467E-4,.175E-5,0
IRIDIUM 179,2023-068W,2026-07-18T11:22:00.303168,14.80023489,.0002373,86.6768,21.3552,93.5934,266.5558,0,U,56730,999,17099,.9852914E-5,.101E-5,0
